NORAD_CAT_ID,OBJECT_NAME,OBJECT_TYPE,EPOCH,MEAN_MOTION,ECCENTRICITY,INCLINATION,RA_OF_ASC_NODE,ARG_OF_PERICENTER,MEAN_ANOMALY,BSTAR,MEAN_MOTION_DOT,MEAN_MOTION_DDOT,TLE_LINE0,TLE_LINE1,TLE_LINE2,SEMIMAJOR_AXIS,PERIOD,APOGEE,PERIGEE,DECAYED
53132.0,STARLINK-4063,PAYLOAD,2022-10-24 22:00:00,15.08831819,0.0002158,53.2161,303.7741,36.4859,234.079,0.00080911,0.0001261,0.0,0 STARLINK-4063,1 53132U 22083A   22297.91667824  .00012610  00000-0  80911-3 0  9996,2 53132  53.2161 303.7741 0002158  36.4859 234.0790 15.08831819  1303,6917.905,95.438,541.263,538.278,0.0
53132.0,STARLINK-4063,PAYLOAD,2022-10-25 06:00:00,15.08832561,0.0002307,53.2161,302.2792,34.0038,248.1537,-0.0011970999999999,-0.00019286,0.0,0 STARLINK-4063,1 53132U 22083A   22298.25001157 -.00019286  00000-0 -11971-2 0  9992,2 53132  53.2161 302.2792 0002307  34.0038 248.1537 15.08832561 15936,6917.903,95.438,541.364,538.172,0.0
53132.0,STARLINK-4063,PAYLOAD,2022-10-25 14:00:01,15.08837763,0.0002359,53.2158,300.7827,32.3288,261.4019,-0.00069212,-0.00011286,0.0,0 STARLINK-4063,1 53132U 22083A   22298.58334491 -.00011286  00000-0 -69212-3 0  9992,2 53132  53.2158 300.7827 0002359  32.3288 261.4019 15.08837763  1307,6917.887,95.438,541.384,538.12,0.0
53132.0,STARLINK-4063,PAYLOAD,2022-10-25 22:00:01,15.08818222,0.0002197,53.2158,299.2845,36.8429,268.5451,0.0026778,0.00042562,0.0,0 STARLINK-4063,1 53132U 22083A   22298.91668981  .00042562  00000-0  26778-2 0  9991,2 53132  53.2158 299.2845 0002197  36.8429 268.5451 15.08818222 16038,6917.946999999999,95.439,541.332,538.2919999999998,0.0
53132.0,STARLINK-4063,PAYLOAD,2022-10-26 14:00:01,15.08835659,0.0002396,53.2159,296.2931,31.8646,296.6223,-0.0010463,-0.000169,0.0,0 STARLINK-4063,1 53132U 22083A   22299.58334491 -.00016900  00000-0 -10463-2 0  9994,2 53132  53.2159 296.2931 0002396  31.8646 296.6223 15.08835659  1305,6917.894,95.438,541.4159999999998,538.101,0.0
53132.0,STARLINK-4063,PAYLOAD,2022-10-26 22:00:00,15.088099599999998,0.0002261,53.2161,294.7951,36.9039,303.172,0.0032225,0.0005133,0.0,0 STARLINK-4063,1 53132U 22083A   22299.91667824  .00051330  00000-0  32225-2 0  9994,2 53132  53.2161 294.7951 0002261  36.9039 303.1720 15.08809960  1308,6917.972,95.439,541.401,538.273,0.0
53132.0,STARLINK-4063,PAYLOAD,2022-10-27 06:00:00,15.08846789,0.0002472,53.2163,293.3002,35.5585,316.1027,-0.00042759,-7.089e-05,0.0,0 STARLINK-4063,1 53132U 22083A   22300.25001157 -.00007089  00000-0 -42759-3 0  9993,2 53132  53.2163 293.3002 0002472  35.5585 316.1027 15.08846789 16240,6917.86,95.437,541.435,538.015,0.0
53132.0,STARLINK-4063,PAYLOAD,2022-10-27 14:00:01,15.0887885,0.0002466,53.2164,291.8034,33.2833,330.0356,-0.0035777,-0.00056842,0.0,0 STARLINK-4063,1 53132U 22083A   22300.58335648 -.00056842  00000-0 -35777-2 0  9996,2 53132  53.2164 291.8034 0002466  33.2833 330.0356 15.08878850  1308,6917.762,95.435,541.3330000000002,537.9209999999998,0.0
53132.0,STARLINK-4063,PAYLOAD,2022-10-27 22:00:00,15.08818121,0.0002296999999999,53.2168,290.3056,37.3091,337.5721,0.0032806,0.0005228,0.0,0 STARLINK-4063,1 53132U 22083A   22300.91667824  .00052280  00000-0  32806-2 0  9997,2 53132  53.2168 290.3056 0002297  37.3091 337.5721 15.08818121  1306,6917.946999999999,95.439,541.401,538.2230000000002,0.0
53132.0,STARLINK-4063,PAYLOAD,2022-10-28 06:00:00,15.08865685,0.0002481,53.217,288.8109,34.6578,351.81699999999995,-0.0027732,-0.00044187,0.0,0 STARLINK-4063,1 53132U 22083A   22301.25001157 -.00044187  00000-0 -27732-2 0  9997,2 53132  53.2170 288.8109 0002481  34.6578 351.8170 15.08865685 16394,6917.802,95.436,541.383,537.951,0.0
53132.0,STARLINK-4063,PAYLOAD,2022-10-28 14:00:01,15.08849072,0.0002431,53.2171,287.314,32.6874,5.4566,-0.0010387,-0.00016786,0.0,0 STARLINK-4063,1 53132U 22083A   22301.58335648 -.00016786  00000-0 -10387-2 0  9990,2 53132  53.2171 287.3140 0002431  32.6874   5.4566 15.08849072  1304,6917.853,95.437,541.399,538.036,0.0
53132.0,STARLINK-4063,PAYLOAD,2022-10-28 22:00:01,15.0884165,0.0002251999999999,53.2174,285.8164,36.0474,13.6974,-9.934e-06,-4.46e-06,0.0,0 STARLINK-4063,1 53132U 22083A   22301.91668981 -.00000446  00000-0 -99340-5 0  9991,2 53132  53.2174 285.8164 0002252  36.0474  13.6974 15.08841650 16495,6917.875,95.437,541.298,538.182,0.0
53132.0,STARLINK-4063,PAYLOAD,2022-10-29 12:00:00,15.08858446,0.0002415,53.2173,283.1995,31.2623,308.7139,-0.00090656,-0.00014695,0.0,0 STARLINK-4063,1 53132U 22083A   22302.50001157 -.00014695  00000-0 -90656-3 0  9993,2 53132  53.2173 283.1995 0002415  31.2623 308.7139 15.08858446  1307,6917.824000000001,95.436,541.36,538.018,0.0
53132.0,STARLINK-4063,PAYLOAD,2022-10-29 22:00:01,15.08855055,0.0002214,53.2177,281.3274,36.9424,47.6104,0.00069982,0.00010872,0.0,0 STARLINK-4063,1 53132U 22083A   22302.91668981  .00010872  00000-0  69982-3 0  9991,2 53132  53.2177 281.3274 0002214  36.9424  47.6104 15.08855055  1303,6917.834,95.437,541.231,538.168,0.0
53132.0,STARLINK-4063,PAYLOAD,2022-10-30 00:00:00,15.08877701,0.000223,53.2179,280.9539,37.474,139.9133,-0.002262,-0.00036146,0.0,0 STARLINK-4063,1 53132U 22083A   22303.00001157 -.00036146  00000-0 -22620-2 0  9999,2 53132  53.2179 280.9539 0002230  37.4740 139.9133 15.08877701 16652,6917.765,95.435,541.173,538.087,0.0
53132.0,STARLINK-4063,PAYLOAD,2022-10-30 14:00:01,15.08841893,0.0002263,53.2173,278.336,32.4951,75.2017,-0.0034424,-0.00054664,0.0,0 STARLINK-4063,1 53132U 22083A   22303.58334491 -.00054664  00000-0 -34424-2 0  9992,2 53132  53.2173 278.3360 0002263  32.4951  75.2017 15.08841893  1306,6917.875,95.437,541.305,538.174,0.0
53132.0,STARLINK-4063,PAYLOAD,2022-10-30 22:00:01,15.08806556,0.0002056999999999,53.2175,276.8387,35.115,84.2185,0.00025785,3.814e-05,0.0,0 STARLINK-4063,1 53132U 22083A   22303.91668981  .00003814  00000-0  25785-3 0  9993,2 53132  53.2175 276.8387 0002057  35.1150  84.2185 15.08806556  1305,6917.983,95.44,541.271,538.425,0.0
53132.0,STARLINK-4063,PAYLOAD,2022-10-31 14:00:01,15.08831187,0.0002163,53.2168,273.8473,32.481,109.8968,-0.00089583,-0.00014514,0.0,0 STARLINK-4063,1 53132U 22083A   22304.58334491 -.00014514  00000-0 -89583-3 0  9990,2 53132  53.2168 273.8473 0002163  32.4810 109.8968 15.08831187  1302,6917.906999999997,95.438,541.269,538.276,0.0
53132.0,STARLINK-4063,PAYLOAD,2022-10-31 22:00:01,15.08837307,0.0002029999999999,53.2169,272.3502,37.033,116.9831,0.0011098,0.00017417,0.0,0 STARLINK-4063,1 53132U 22083A   22304.91668981  .00017417  00000-0  11098-2 0  9999,2 53132  53.2169 272.3502 0002030  37.0330 116.9831 15.08837307  1309,6917.889,95.438,541.158,538.349,0.0
53132.0,STARLINK-4063,PAYLOAD,2022-11-01 14:00:01,15.08854284,0.0002085,53.2161,269.3583,32.4782,144.6639,-0.0009157,-0.00014838,0.0,0 STARLINK-4063,1 53132U 22083A   22305.58334491 -.00014838  00000-0 -91570-3 0  9999,2 53132  53.2161 269.3583 0002085  32.4782 144.6639 15.08854284 17041,6917.837,95.437,541.144,538.259,0.0
53132.0,STARLINK-4063,PAYLOAD,2022-11-01 22:00:00,15.08858524,0.000195,53.2162,267.8614,35.7808,152.9635,-0.001575,-0.0002528,0.0,0 STARLINK-4063,1 53132U 22083A   22305.91667824 -.00025280  00000-0 -15750-2 0  9993,2 53132  53.2162 267.8614 0001950  35.7808 152.9635 15.08858524  1306,6917.824000000001,95.436,541.038,538.34,0.0
53132.0,STARLINK-4063,PAYLOAD,2022-11-02 14:00:01,15.08831897,0.0002063,53.216,264.8676,32.4092,179.5212,-0.0021933,-0.00035018,0.0,0 STARLINK-4063,1 53132U 22083A   22306.58334491 -.00035018  00000-0 -21933-2 0  9998,2 53132  53.2160 264.8676 0002063  32.4092 179.5212 15.08831897  1304,6917.905,95.438,541.197,538.3430000000002,0.0
53132.0,STARLINK-4063,PAYLOAD,2022-11-02 18:00:02,15.08786387,0.0001963,53.2162,264.1146,34.7171,3.076,0.0041132,0.00065688,0.0,0 STARLINK-4063,1 53132U 22083A   22306.75002315  .00065688  00000-0  41132-2 0  9991,2 53132  53.2162 264.1146 0001963  34.7171   3.0760 15.08786387 17222,6918.044,95.441,541.2669999999998,538.5509999999998,0.0
53132.0,STARLINK-4063,PAYLOAD,2022-11-03 03:22:22,15.088357,0.0002113,53.2171,262.3667,35.3173,324.7959,-1.682e-05,-5.56e-06,0.0,0 STARLINK-4063,1 53132U 22083A   22307.14053609 -.00000556  00000-0 -16820-4 0  9990,2 53132  53.2171 262.3667 0002113  35.3173 324.7959 15.08835700 17280,6917.894,95.438,541.22,538.297,0.0
53132.0,STARLINK-4063,PAYLOAD,2022-11-03 06:33:08,15.08842353,0.0002092,53.2181,261.7721,37.9164,322.1975,5.0688e-05,5.19e-06,0.0,0 STARLINK-4063,1 53132U 22083A   22307.27301511  .00000519  00000-0  50688-4 0  9999,2 53132  53.2181 261.7721 0002092  37.9164 322.1975 15.08842353 16673,6917.873000000001,95.437,541.185,538.2909999999998,0.0
53132.0,STARLINK-4063,PAYLOAD,2022-11-03 20:51:35,15.08857626,0.0002124,53.2184,259.0957,35.8689,324.2446,0.00023645,3.479e-05,0.0,0 STARLINK-4063,1 53132U 22083A   22307.86915894  .00003479  00000-0  23645-3 0  9999,2 53132  53.2184 259.0957 0002124  35.8689 324.2446 15.08857626 16767,6917.8269999999975,95.436,541.161,538.222,0.0
53132.0,STARLINK-4063,PAYLOAD,2022-11-04 03:13:08,15.08861951,0.0002382,53.2177,257.9078,31.2554,328.8579,0.0004292,6.553e-05,0.0,0 STARLINK-4063,1 53132U 22083A   22308.13412144  .00006553  00000-0  42920-3 0  9993,2 53132  53.2177 257.9078 0002382  31.2554 328.8579 15.08861951 17435,6917.813,95.436,541.326,538.03,0.0
53132.0,STARLINK-4063,PAYLOAD,2022-11-04 06:23:54,15.08862309,0.0002369,53.2173,257.3134,31.606,328.5074,0.00048973,7.519e-05,0.0,0 STARLINK-4063,1 53132U 22083A   22308.26660137  .00007519  00000-0  48973-3 0  9991,2 53132  53.2173 257.3134 0002369  31.6060 328.5074 15.08862309 16826,6917.812,95.436,541.316,538.038,0.0
53132.0,STARLINK-4063,PAYLOAD,2022-11-04 20:42:22,15.08852441,0.0002187,53.2165,254.6361,49.594,310.5243,0.00021195,3.088e-05,0.0,0 STARLINK-4063,1 53132U 22083A   22308.86276169  .00003088  00000-0  21195-3 0  9999,2 53132  53.2165 254.6361 0002187  49.5940 310.5243 15.08852441 17547,6917.842,95.437,541.22,538.194,0.0
